{"type": "FeatureCollection", "features": [ {"type": "Feature", "properties": {"norad_id": 30146, "name": "FENGYUN 1C DEB", "group": "fengyun-1c-debris", "lat": 65.28050061823998, "lon": -5.786961972835491, "alt_km": 813.2408692920644, "timestamp": "2025-12-24T09:46:31.278346+00:00", "meta": {"OBJECT_NAME": "FENGYUN 1C DEB", "OBJECT_ID": "1999-025TB", "EPOCH": "2025-12-23T23:24:50.217408", "MEAN_MOTION": 13.86616374, "ECCENTRICITY": 0.0178676, "INCLINATION": 98.0204, "RA_OF_ASC_NODE": 156.0084, "ARG_OF_PERICENTER": 91.7759, "MEAN_ANOMALY": 26.9605, "EPHEMERIS_TYPE": 0, "CLASSIFICATION_TYPE": "U", "NORAD_CAT_ID": 30146, "ELEMENT_SET_NO": 999, "REV_AT_EPOCH": 95573, "BSTAR": 0.00049979, "MEAN_MOTION_DOT": 6.26e-06, "MEAN_MOTION_DDOT": 0}, "tle": {"line1": "1 30146U 99025TB  25357.97558122  .00000626  00000+0  49979-3 0  9994", "line2": "2 30146  98.0204 156.0084 0178676  91.7759  26.9605 13.86616374955738"}}, "geometry": {"type": "Point", "coordinates": [-5.786961972835491, 65.28050061823998]}}, {"type": "Feature", "properties": {"norad_id": 30148, "name": "FENGYUN 1C DEB", "group": "fengyun-1c-debris", "lat": -39.34663122681974, "lon": -39.94217024893235, "alt_km": 881.5951747704403, "timestamp": "2025-12-24T09:46:31.278356+00:00", "meta": {"OBJECT_NAME": "FENGYUN 1C DEB", "OBJECT_ID": "1999-025TD", "EPOCH": "2025-12-23T21:21:40.307040", "MEAN_MOTION": 13.88509981, "ECCENTRICITY": 0.0135019, "INCLINATION": 99.5459, "RA_OF_ASC_NODE": 147.4582, "ARG_OF_PERICENTER": 167.0982, "MEAN_ANOMALY": 347.3695, "EPHEMERIS_TYPE": 0, "CLASSIFICATION_TYPE": "U", "NORAD_CAT_ID": 30148, "ELEMENT_SET_NO": 999, "REV_AT_EPOCH": 95671, "BSTAR": 0.00074278, "MEAN_MOTION_DOT": 9.13e-06, "MEAN_MOTION_DDOT": 0}, "tle": {"line1": "1 30148U 99025TD  25357.89004985  .00000913  00000+0  74278-3 0  9999", "line2": "2 30148  99.5459 147.4582 0135019 167.0982 347.3695 13.88509981956719"}}, "geometry": {"type": "Point", "coordinates": [-39.94217024893235, -39.34663122681974]}}, {"type": "Feature", "properties": {"norad_id": 30150, "name": "FENGYUN 1C DEB", "group": "fengyun-1c-debris", "lat": -79.93813754029334, "lon": -162.8377281103887, "alt_km": 854.591047966208, "timestamp": "2025-12-24T09:46:31.278366+00:00", "meta": {"OBJECT_NAME": "FENGYUN 1C DEB", "OBJECT_ID": "1999-025TF", "EPOCH": "2025-12-23T08:27:47.898144", "MEAN_MOTION": 13.86607115, "ECCENTRICITY": 0.01463894, "INCLINATION": 98.9949, "RA_OF_ASC_NODE": 132.9409, "ARG_OF_PERICENTER": 307.2889, "MEAN_ANOMALY": 106.2345, "EPHEMERIS_TYPE": 0, "CLASSIFICATION_TYPE": "U", "NORAD_CAT_ID": 30150, "ELEMENT_SET_NO": 999, "REV_AT_EPOCH": 95605, "BSTAR": 0.00051184781, "MEAN_MOTION_DOT": 6.04e-06, "MEAN_MOTION_DDOT": 0}, "tle": {"line1": "1 30150U 99025TF  25357.35263771  .00000604  00000+0  51185-3 0  9992", "line2": "2 30150  98.9949 132.9409 0146389 307.2889 106.2345 13.86607115956059"}}, "geometry": {"type": "Point", "coordinates": [-162.8377281103887, -79.93813754029334]}}, {"type": "Feature", "properties": {"norad_id": 30151, "name": "FENGYUN 1C DEB", "group": "fengyun-1c-debris", "lat": -9.700099154575115, "lon": 7.545081217894754, "alt_km": 977.0630449490154, "timestamp": "2025-12-24T09:46:31.278377+00:00", "meta": {"OBJECT_NAME": "FENGYUN 1C DEB", "OBJECT_ID": "1999-025TG", "EPOCH": "2025-12-23T19:06:11.951424", "MEAN_MOTION": 13.84486451, "ECCENTRICITY": 0.01632341, "INCLINATION": 99.0629, "RA_OF_ASC_NODE": 5.3915, "ARG_OF_PERICENTER": 248.9472, "MEAN_ANOMALY": 294.174, "EPHEMERIS_TYPE": 0, "CLASSIFICATION_TYPE": "U", "NORAD_CAT_ID": 30151, "ELEMENT_SET_NO": 999, "REV_AT_EPOCH": 95398, "BSTAR": 0.00044477497, "MEAN_MOTION_DOT": 5.09e-06, "MEAN_MOTION_DDOT": 0}, "tle": {"line1": "1 30151U 99025TG  25357.79597166  .00000509  00000+0  44477-3 0  9999", "line2": "2 30151  99.0629   5.3915 0163234 248.9472 294.1740 13.84486451953980"}}, "geometry": {"type": "Point", "coordinates": [7.545081217894754, -9.700099154575115]}}, {"type": "Feature", "properties": {"norad_id": 30152, "name": "FENGYUN 1C DEB", "group": "fengyun-1c-debris", "lat": -79.03066202911442, "lon": -19.583920188505225, "alt_km": 1013.809327727934, "timestamp": "2025-12-24T09:46:31.278388+00:00", "meta": {"OBJECT_NAME": "FENGYUN 1C DEB", "OBJECT_ID": "1999-025TH", "EPOCH": "2025-12-24T01:38:30.804576", "MEAN_MOTION": 13.96765988, "ECCENTRICITY": 0.0162481, "INCLINATION": 99.0805, "RA_OF_ASC_NODE": 215.6799, "ARG_OF_PERICENTER": 54.2559, "MEAN_ANOMALY": 307.3593, "EPHEMERIS_TYPE": 0, "CLASSIFICATION_TYPE": "U", "NORAD_CAT_ID": 30152, "ELEMENT_SET_NO": 999, "REV_AT_EPOCH": 95536, "BSTAR": 0.0022476, "MEAN_MOTION_DOT": 3.447e-05, "MEAN_MOTION_DDOT": 0}, "tle": {"line1": "1 30152U 99025TH  25358.06841209  .00003447  00000+0  22476-2 0  9999", "line2": "2 30152  99.0805 215.6799 0162481  54.2559 307.3593 13.96765988955365"}}, "geometry": {"type": "Point", "coordinates": [-19.583920188505225, -79.03066202911442]}}, {"type": "Feature", "properties": {"norad_id": 30153, "name": "FENGYUN 1C DEB", "group": "fengyun-1c-debris", "lat": -46.21111817972922, "lon": 158.87721242626236, "alt_km": 1019.7494121750151, "timestamp": "2025-12-24T09:46:31.278398+00:00", "meta": {"OBJECT_NAME": "FENGYUN 1C DEB", "OBJECT_ID": "1999-025TJ", "EPOCH": "2025-12-23T22:28:15.225312", "MEAN_MOTION": 13.78800406, "ECCENTRICITY": 0.0200458, "INCLINATION": 100.4678, "RA_OF_ASC_NODE": 349.4771, "ARG_OF_PERICENTER": 337.2126, "MEAN_ANOMALY": 75.3276, "EPHEMERIS_TYPE": 0, "CLASSIFICATION_TYPE": "U", "NORAD_CAT_ID": 30153, "ELEMENT_SET_NO": 999, "REV_AT_EPOCH": 94929, "BSTAR": 0.0011251, "MEAN_MOTION_DOT": 1.276e-05, "MEAN_MOTION_DDOT": 0}, "tle": {"line1": "1 30153U 99025TJ  25357.93628733  .00001276  00000+0  11251-2 0  9997", "line2": "2 30153 100.4678 349.4771 0200458 337.2126  75.3276 13.78800406949298"}}, "geometry": {"type": "Point", "coordinates": [158.87721242626236, -46.21111817972922]}}, {"type": "Feature", "properties": {"norad_id": 30154, "name": "FENGYUN 1C DEB", "group": "fengyun-1c-debris", "lat": 56.99148348566202, "lon": 25.83873066930489, "alt_km": 978.4175937927776, "timestamp": "2025-12-24T09:46:31.278408+00:00", "meta": {"OBJECT_NAME": "FENGYUN 1C DEB", "OBJECT_ID": "1999-025TK", "EPOCH": "2025-12-23T13:28:49.524384", "MEAN_MOTION": 13.86028594, "ECCENTRICITY": 0.0183004, "INCLINATION": 98.4481, "RA_OF_ASC_NODE": 38.3002, "ARG_OF_PERICENTER": 169.3207, "MEAN_ANOMALY": 353.6131, "EPHEMERIS_TYPE": 0, "CLASSIFICATION_TYPE": "U", "NORAD_CAT_ID": 30154, "ELEMENT_SET_NO": 999, "REV_AT_EPOCH": 95134, "BSTAR": 0.0014227381, "MEAN_MOTION_DOT": 1.83e-05, "MEAN_MOTION_DDOT": 0}, "tle": {"line1": "1 30154U 99025TK  25357.56168431  .00001830  00000+0  14227-2 0  9993", "line2": "2 30154  98.4481  38.3002 0183004 169.3207 353.6131 13.86028594951349"}}, "geometry": {"type": "Point", "coordinates": [25.83873066930489, 56.99148348566202]}}, {"type": "Feature", "properties": {"norad_id": 30155, "name": "FENGYUN 1C DEB", "group": "fengyun-1c-debris", "lat": 49.81999302150273, "lon": -96.0793758689634, "alt_km": 1159.2060166722822, "timestamp": "2025-12-24T09:46:31.278418+00:00", "meta": {"OBJECT_NAME": "FENGYUN 1C DEB", "OBJECT_ID": "1999-025TL", "EPOCH": "2025-12-23T05:10:32.293056", "MEAN_MOTION": 13.7384486, "ECCENTRICITY": 0.02425056, "INCLINATION": 99.7512, "RA_OF_ASC_NODE": 70.9556, "ARG_OF_PERICENTER": 316.521, "MEAN_ANOMALY": 41.7039, "EPHEMERIS_TYPE": 0, "CLASSIFICATION_TYPE": "U", "NORAD_CAT_ID": 30155, "ELEMENT_SET_NO": 999, "REV_AT_EPOCH": 94008, "BSTAR": 0.001857638, "MEAN_MOTION_DOT": 2.103e-05, "MEAN_MOTION_DDOT": 0}, "tle": {"line1": "1 30155U 99025TL  25357.21565154  .00002103  00000+0  18576-2 0  9994", "line2": "2 30155  99.7512  70.9556 0242505 316.5210  41.7039 13.73844860940086"}}, "geometry": {"type": "Point", "coordinates": [-96.0793758689634, 49.81999302150273]}}, {"type": "Feature", "properties": {"norad_id": 30156, "name": "FENGYUN 1C DEB", "group": "fengyun-1c-debris", "lat": -41.44224720098571, "lon": -27.2670000123247, "alt_km": 955.8056345035147, "timestamp": "2025-12-24T09:46:31.278429+00:00", "meta": {"OBJECT_NAME": "FENGYUN 1C DEB", "OBJECT_ID": "1999-025TM", "EPOCH": "2025-12-23T17:12:40.070880", "MEAN_MOTION": 13.80841999, "ECCENTRICITY": 0.0198592, "INCLINATION": 98.9197, "RA_OF_ASC_NODE": 324.1107, "ARG_OF_PERICENTER": 233.301, "MEAN_ANOMALY": 253.4195, "EPHEMERIS_TYPE": 0, "CLASSIFICATION_TYPE": "U", "NORAD_CAT_ID": 30156, "ELEMENT_SET_NO": 999, "REV_AT_EPOCH": 94842, "BSTAR": 0.00093998283, "MEAN_MOTION_DOT": 1.107e-05, "MEAN_MOTION_DDOT": 0}, "tle": {"line1": "1 30156U 99025TM  25357.71713045  .00001107  00000+0  93998-3 0  9999", "line2": "2 30156  98.9197 324.1107 0198592 233.3010 253.4195 13.80841999948422"}}, "geometry": {"type": "Point", "coordinates": [-27.2670000123247, -41.44224720098571]}}, {"type": "Feature", "properties": {"norad_id": 30157, "name": "FENGYUN 1C DEB", "group": "fengyun-1c-debris", "lat": 50.8922833051576, "lon": 84.8698136935943, "alt_km": 744.2926396226203, "timestamp": "2025-12-24T09:46:31.278439+00:00", "meta": {"OBJECT_NAME": "FENGYUN 1C DEB", "OBJECT_ID": "1999-025TN", "EPOCH": "2025-12-22T06:19:10.926624", "MEAN_MOTION": 14.45222561, "ECCENTRICITY": 0.00370684, "INCLINATION": 98.7157, "RA_OF_ASC_NODE": 93.5475, "ARG_OF_PERICENTER": 165.6569, "MEAN_ANOMALY": 258.1181, "EPHEMERIS_TYPE": 0, "CLASSIFICATION_TYPE": "U", "NORAD_CAT_ID": 30157, "ELEMENT_SET_NO": 999, "REV_AT_EPOCH": 98210, "BSTAR": 0.00214453, "MEAN_MOTION_DOT": 7.541e-05, "MEAN_MOTION_DDOT": 0}, "tle": {"line1": "1 30157U 99025TN  25356.26332091  .00007541  00000+0  21445-2 0  9992", "line2": "2 30157  98.7157  93.5475 0037068 165.6569 258.1181 14.45222561982108"}}, "geometry": {"type": "Point", "coordinates": [84.8698136935943, 50.8922833051576]}}]}